{"fetched_at":"2026-07-18T17:30:01.066Z","source":"https://celestrak.org/NORAD/elements/gp.php?NAME=JILIN&FORMAT=JSON","constellation":"jilin-1-kuanfu","records":[{"OBJECT_NAME":"JILIN-1 KUANFU 01","OBJECT_ID":"2020-003A","EPOCH":"2026-07-18T06:46:03.256032","CLASSIFICATION_TYPE":"U","MEAN_MOTION":15.10876827,"ECCENTRICITY":0.0009568,"INCLINATION":97.5018,"RA_OF_ASC_NODE":272.6314,"ARG_OF_PERICENTER":186.0027,"MEAN_ANOMALY":174.109,"EPHEMERIS_TYPE":0,"NORAD_CAT_ID":45016,"ELEMENT_SET_NO":999,"REV_AT_EPOCH":36002,"BSTAR":0.000099302602,"MEAN_MOTION_DOT":0.0000159,"MEAN_MOTION_DDOT":0},{"OBJECT_NAME":"JILIN-1 KUANFU-01B","OBJECT_ID":"2021-061A","EPOCH":"2026-07-18T06:09:29.560032","CLASSIFICATION_TYPE":"U","MEAN_MOTION":15.09816197,"ECCENTRICITY":0.00055969,"INCLINATION":97.5202,"RA_OF_ASC_NODE":274.8726,"ARG_OF_PERICENTER":327.0209,"MEAN_ANOMALY":33.067,"EPHEMERIS_TYPE":0,"NORAD_CAT_ID":49003,"ELEMENT_SET_NO":999,"REV_AT_EPOCH":27803,"BSTAR":0.00006701359,"MEAN_MOTION_DOT":0.0000102,"MEAN_MOTION_DDOT":0},{"OBJECT_NAME":"JILIN-1 KUANFU 01C","OBJECT_ID":"2022-048A","EPOCH":"2026-07-18T05:58:25.183776","CLASSIFICATION_TYPE":"U","MEAN_MOTION":15.09608082,"ECCENTRICITY":0.00175511,"INCLINATION":97.5249,"RA_OF_ASC_NODE":275.8555,"ARG_OF_PERICENTER":209.149,"MEAN_ANOMALY":150.8761,"EPHEMERIS_TYPE":0,"NORAD_CAT_ID":52443,"ELEMENT_SET_NO":999,"REV_AT_EPOCH":23188,"BSTAR":0.000080913737,"MEAN_MOTION_DOT":0.00001241,"MEAN_MOTION_DDOT":0},{"OBJECT_NAME":"JILIN-1 KUANFU 02A","OBJECT_ID":"2023-127A","EPOCH":"2026-07-18T06:22:40.417248","CLASSIFICATION_TYPE":"U","MEAN_MOTION":15.10827032,"ECCENTRICITY":0.00105007,"INCLINATION":97.5569,"RA_OF_ASC_NODE":292.6927,"ARG_OF_PERICENTER":224.9491,"MEAN_ANOMALY":135.089,"EPHEMERIS_TYPE":0,"NORAD_CAT_ID":57696,"ELEMENT_SET_NO":999,"REV_AT_EPOCH":16032,"BSTAR":0.00014850046,"MEAN_MOTION_DOT":0.00002406,"MEAN_MOTION_DDOT":0},{"OBJECT_NAME":"JILIN-01 KUANFU 02B 1","OBJECT_ID":"2024-169A","EPOCH":"2026-07-18T06:47:35.490624","CLASSIFICATION_TYPE":"U","MEAN_MOTION":15.09067927,"ECCENTRICITY":0.00012801,"INCLINATION":97.5576,"RA_OF_ASC_NODE":288.3293,"ARG_OF_PERICENTER":325.7509,"MEAN_ANOMALY":34.3637,"EPHEMERIS_TYPE":0,"NORAD_CAT_ID":61189,"ELEMENT_SET_NO":999,"REV_AT_EPOCH":10051,"BSTAR":0.00010396853,"MEAN_MOTION_DOT":0.00001584,"MEAN_MOTION_DDOT":0},{"OBJECT_NAME":"JILIN-01 KUANFU 02B 2","OBJECT_ID":"2024-169B","EPOCH":"2026-07-18T06:18:21.796128","CLASSIFICATION_TYPE":"U","MEAN_MOTION":15.09029925,"ECCENTRICITY":0.00048618,"INCLINATION":97.5569,"RA_OF_ASC_NODE":287.6936,"ARG_OF_PERICENTER":265.1331,"MEAN_ANOMALY":94.9342,"EPHEMERIS_TYPE":0,"NORAD_CAT_ID":61190,"ELEMENT_SET_NO":999,"REV_AT_EPOCH":10051,"BSTAR":0.00012699966,"MEAN_MOTION_DOT":0.00001946,"MEAN_MOTION_DDOT":0},{"OBJECT_NAME":"JILIN-01 KUANFU 02B 3","OBJECT_ID":"2024-169C","EPOCH":"2026-07-18T06:31:08.289408","CLASSIFICATION_TYPE":"U","MEAN_MOTION":15.09068209,"ECCENTRICITY":0.00133253,"INCLINATION":97.5566,"RA_OF_ASC_NODE":288.1353,"ARG_OF_PERICENTER":194.9859,"MEAN_ANOMALY":165.0976,"EPHEMERIS_TYPE":0,"NORAD_CAT_ID":61191,"ELEMENT_SET_NO":999,"REV_AT_EPOCH":10051,"BSTAR":0.00012031124,"MEAN_MOTION_DOT":0.00001845,"MEAN_MOTION_DDOT":0},{"OBJECT_NAME":"JILIN-01 KUANFU 02B 4","OBJECT_ID":"2024-169D","EPOCH":"2026-07-18T05:46:12.772704","CLASSIFICATION_TYPE":"U","MEAN_MOTION":15.09055967,"ECCENTRICITY":0.00142592,"INCLINATION":97.5529,"RA_OF_ASC_NODE":287.6293,"ARG_OF_PERICENTER":153.9094,"MEAN_ANOMALY":206.2856,"EPHEMERIS_TYPE":0,"NORAD_CAT_ID":61192,"ELEMENT_SET_NO":999,"REV_AT_EPOCH":10051,"BSTAR":0.00012477493,"MEAN_MOTION_DOT":0.00001916,"MEAN_MOTION_DDOT":0},{"OBJECT_NAME":"JILIN-01 KUANFU 02B 5","OBJECT_ID":"2024-169E","EPOCH":"2026-07-18T07:02:55.638528","CLASSIFICATION_TYPE":"U","MEAN_MOTION":15.09086548,"ECCENTRICITY":0.00134555,"INCLINATION":97.5578,"RA_OF_ASC_NODE":288.4808,"ARG_OF_PERICENTER":176.8688,"MEAN_ANOMALY":183.2628,"EPHEMERIS_TYPE":0,"NORAD_CAT_ID":61193,"ELEMENT_SET_NO":999,"REV_AT_EPOCH":10052,"BSTAR":0.000099752998,"MEAN_MOTION_DOT":0.0000152,"MEAN_MOTION_DDOT":0},{"OBJECT_NAME":"JILIN-01 KUANFU 02B 6","OBJECT_ID":"2024-169F","EPOCH":"2026-07-18T06:01:35.856480","CLASSIFICATION_TYPE":"U","MEAN_MOTION":15.09046426,"ECCENTRICITY":0.001589,"INCLINATION":97.5557,"RA_OF_ASC_NODE":288.3303,"ARG_OF_PERICENTER":210.326,"MEAN_ANOMALY":149.7051,"EPHEMERIS_TYPE":0,"NORAD_CAT_ID":61194,"ELEMENT_SET_NO":999,"REV_AT_EPOCH":10052,"BSTAR":0.00012850391,"MEAN_MOTION_DOT":0.00001975,"MEAN_MOTION_DDOT":0}]}
