JILIN-1 KUANFU 01       
1 45016U 20003A   26199.28198213  .00001590  00000+0  99303-4 0  9994
2 45016  97.5018 272.6314 0009568 186.0027 174.1090 15.10876827360023
JILIN-1 KUANFU-01B      
1 49003U 21061A   26199.25659213  .00001020  00000+0  67014-4 0  9990
2 49003  97.5202 274.8726 0005596 327.0209  33.0670 15.09816197278033
JILIN-1 KUANFU 01C      
1 52443U 22048A   26199.24890259  .00001241  00000+0  80914-4 0  9993
2 52443  97.5249 275.8555 0017551 209.1490 150.8761 15.09608082231886
JILIN-1 KUANFU 02A      
1 57696U 23127A   26199.26574557  .00002406  00000+0  14850-3 0  9998
2 57696  97.5569 292.6927 0010500 224.9491 135.0890 15.10827032160327
JILIN-01 KUANFU 02B 1   
1 61189U 24169A   26199.28304966  .00001584  00000+0  10397-3 0  9992
2 61189  97.5576 288.3293 0001280 325.7509  34.3637 15.09067927100512
JILIN-01 KUANFU 02B 2   
1 61190U 24169B   26199.26275227  .00001946  00000+0  12700-3 0  9991
2 61190  97.5569 287.6936 0004861 265.1331  94.9342 15.09029925100511
JILIN-01 KUANFU 02B 3   
1 61191U 24169C   26199.27162372  .00001845  00000+0  12031-3 0  9994
2 61191  97.5566 288.1353 0013325 194.9859 165.0976 15.09068209100518
JILIN-01 KUANFU 02B 4   
1 61192U 24169D   26199.24042561  .00001916  00000+0  12477-3 0  9992
2 61192  97.5529 287.6293 0014259 153.9094 206.2856 15.09055967100510
JILIN-01 KUANFU 02B 5   
1 61193U 24169E   26199.29369952  .00001520  00000+0  99753-4 0  9998
2 61193  97.5578 288.4808 0013455 176.8688 183.2628 15.09086548100527
JILIN-01 KUANFU 02B 6   
1 61194U 24169F   26199.25110945  .00001975  00000+0  12850-3 0  9997
2 61194  97.5557 288.3303 0015890 210.3260 149.7051 15.09046426100527
